STARLINK-35562          
1 66063U 25235F   25308.16668980 -.01919499  00000+0 -16544-1 0  9994
2 66063  53.1585 111.9602 0000816  86.6180 215.3827 15.71534610  3671
STARLINK-35542          
1 66064U 25235G   25308.16668980 -.01924015  00000+0 -16588-1 0  9993
2 66064  53.1580 111.9549 0000975  75.8161 228.1063 15.71533474  3673
STARLINK-35375          
1 66065U 25235H   25308.16668980 -.01918872  00000+0 -16540-1 0  9996
2 66065  53.1584 111.9516 0000779  86.4368 219.4001 15.71532849  3671
STARLINK-35179          
1 66066U 25235J   25308.16668980 -.01917902  00000+0 -16530-1 0  9999
2 66066  53.1580 111.9483 0000836  62.1060 245.6446 15.71532305  3676
STARLINK-35401          
1 66067U 25235K   25308.16668980 -.01919680  00000+0 -16547-1 0  9993
2 66067  53.1582 111.9436 0000864  76.0992 233.5713 15.71532581  3620
STARLINK-35422          
1 66068U 25235L   25308.16668980 -.01916787  00000+0 -16521-1 0  9991
2 66068  53.1580 111.9396 0000914  78.0964 233.4929 15.71529867  3622
STARLINK-35279          
1 66069U 25235M   25308.16668980 -.01920259  00000+0 -16550-1 0  9993
2 66069  53.1579 111.9363 0001116  86.6491 226.8524 15.71533443  3677
STARLINK-35295          
1 66070U 25235N   25308.16668980 -.01917213  00000+0 -16525-1 0  9993
2 66070  53.1582 111.9282 0000681  87.4154 229.9218 15.71532221  3671
STARLINK-35323          
1 66071U 25235P   25308.16668980 -.01920493  00000+0 -16555-1 0  9991
2 66071  53.1582 111.9317 0000858  83.1135 232.3086 15.71532544  3678
STARLINK-35299          
1 66072U 25235Q   25308.16668980 -.01925021  00000+0 -16595-1 0  9998
2 66072  53.1579 111.9239 0001050  86.1795 233.0726 15.71536218  3679
STARLINK-35274          
1 66073U 25235R   25308.16668980 -.01920351  00000+0 -16553-1 0  9994
2 66073  53.1580 111.9194 0000803  94.9007 226.2691 15.71534640  3672
STARLINK-35321          
1 66074U 25235S   25308.16668980 -.01919165  00000+0 -16541-1 0  9993
2 66074  53.1577 111.9149 0001097  86.9598 236.1267 15.71532535  3671
